[{"OBJECT_NAME":"D-STAR ONE (SPARROW)","OBJECT_ID":"2018-111F","EPOCH":"2026-03-09T17:46:18.675552","MEAN_MOTION":15.54846146,"ECCENTRICITY":0.00041297,"INCLINATION":97.6111,"RA_OF_ASC_NODE":1.8771,"ARG_OF_PERICENTER":38.9805,"MEAN_ANOMALY":321.1745,"EPHEMERIS_TYPE":0,"CLASSIFICATION_TYPE":"U","NORAD_CAT_ID":43881,"ELEMENT_SET_NO":999,"REV_AT_EPOCH":39583,"BSTAR":0.0010829564,"MEAN_MOTION_DOT":0.00072664,"MEAN_MOTION_DDOT":0},{"OBJECT_NAME":"STARLINK-36532","OBJECT_ID":"2026-020M","EPOCH":"2026-03-09T22:00:01.999584","MEAN_MOTION":15.65089821,"ECCENTRICITY":0.00012424,"INCLINATION":42.9995,"RA_OF_ASC_NODE":140.3271,"ARG_OF_PERICENTER":284.5144,"MEAN_ANOMALY":202.1099,"EPHEMERIS_TYPE":0,"CLASSIFICATION_TYPE":"U","NORAD_CAT_ID":67628,"ELEMENT_SET_NO":999,"REV_AT_EPOCH":604,"BSTAR":-0.022005672,"MEAN_MOTION_DOT":-0.01966844,"MEAN_MOTION_DDOT":0}]
